{"type": "FeatureCollection", "features": [ {"type": "Feature", "properties": {"norad_id": 54234, "name": "NOAA 21 (JPSS-2)", "group": "weather", "lat": 73.80366606094827, "lon": -106.78222599810391, "alt_km": 818.7315914124993, "timestamp": "2025-12-14T22:38:40.403387+00:00", "meta": {"OBJECT_NAME": "NOAA 21 (JPSS-2)", "OBJECT_ID": "2022-150A", "EPOCH": "2025-12-14T07:03:41.730336", "MEAN_MOTION": 14.19524899, "ECCENTRICITY": 0.00021654, "INCLINATION": 98.7463, "RA_OF_ASC_NODE": 284.5831, "ARG_OF_PERICENTER": 35.2352, "MEAN_ANOMALY": 324.8967, "EPHEMERIS_TYPE": 0, "CLASSIFICATION_TYPE": "U", "NORAD_CAT_ID": 54234, "ELEMENT_SET_NO": 999, "REV_AT_EPOCH": 16031, "BSTAR": 8.9155095e-05, "MEAN_MOTION_DOT": 1.44e-06, "MEAN_MOTION_DDOT": 0}, "tle": {"line1": "1 54234U 22150A   25348.29423299  .00000144  00000+0  89155-4 0  9990", "line2": "2 54234  98.7463 284.5831 0002165  35.2352 324.8967 14.19524899160314"}}, "geometry": {"type": "Point", "coordinates": [-106.78222599810391, 73.80366606094827]}}, {"type": "Feature", "properties": {"norad_id": 54743, "name": "METEOSAT-12 (MTG-I1)", "group": "weather", "lat": 0.45864493659063044, "lon": 63.2434163144716, "alt_km": 35793.18766919841, "timestamp": "2025-12-14T22:38:40.403401+00:00", "meta": {"OBJECT_NAME": "METEOSAT-12 (MTG-I1)", "OBJECT_ID": "2022-170C", "EPOCH": "2025-12-14T06:33:51.850656", "MEAN_MOTION": 1.00269445, "ECCENTRICITY": 0.00016324, "INCLINATION": 0.6886, "RA_OF_ASC_NODE": 23.8629, "ARG_OF_PERICENTER": 238.3539, "MEAN_ANOMALY": 279.1752, "EPHEMERIS_TYPE": 0, "CLASSIFICATION_TYPE": "U", "NORAD_CAT_ID": 54743, "ELEMENT_SET_NO": 999, "REV_AT_EPOCH": 1112, "BSTAR": 0, "MEAN_MOTION_DOT": 1e-07, "MEAN_MOTION_DDOT": 0}, "tle": {"line1": "1 54743U 22170C   25348.27351679  .00000010  00000+0  00000+0 0  9996", "line2": "2 54743   0.6886  23.8629 0001632 238.3539 279.1752  1.00269445 11127"}}, "geometry": {"type": "Point", "coordinates": [63.2434163144716, 0.45864493659063044]}}, {"type": "Feature", "properties": {"norad_id": 55973, "name": "TIANMU-1 03", "group": "weather", "lat": -62.97173829288984, "lon": -43.33170399755745, "alt_km": 453.2984427185156, "timestamp": "2025-12-14T22:38:40.403465+00:00", "meta": {"OBJECT_NAME": "TIANMU-1 03", "OBJECT_ID": "2023-039A", "EPOCH": "2025-12-14T07:33:48.037248", "MEAN_MOTION": 15.40982486, "ECCENTRICITY": 0.00043491, "INCLINATION": 97.5104, "RA_OF_ASC_NODE": 151.0103, "ARG_OF_PERICENTER": 56.5374, "MEAN_ANOMALY": 303.6287, "EPHEMERIS_TYPE": 0, "CLASSIFICATION_TYPE": "U", "NORAD_CAT_ID": 55973, "ELEMENT_SET_NO": 999, "REV_AT_EPOCH": 15230, "BSTAR": 0.00040751138, "MEAN_MOTION_DOT": 0.00016727, "MEAN_MOTION_DDOT": 0}, "tle": {"line1": "1 55973U 23039A   25348.31513932  .00016727  00000+0  40751-3 0  9997", "line2": "2 55973  97.5104 151.0103 0004349  56.5374 303.6287 15.40982486152305"}}, "geometry": {"type": "Point", "coordinates": [-43.33170399755745, -62.97173829288984]}}, {"type": "Feature", "properties": {"norad_id": 55974, "name": "TIANMU-1 04", "group": "weather", "lat": 0.3811964157944911, "lon": 150.79598142403148, "alt_km": 442.95076813754895, "timestamp": "2025-12-14T22:38:40.403479+00:00", "meta": {"OBJECT_NAME": "TIANMU-1 04", "OBJECT_ID": "2023-039B", "EPOCH": "2025-12-14T08:37:11.807616", "MEAN_MOTION": 15.41322685, "ECCENTRICITY": 0.00050029, "INCLINATION": 97.5037, "RA_OF_ASC_NODE": 150.2459, "ARG_OF_PERICENTER": 51.166, "MEAN_ANOMALY": 309.0032, "EPHEMERIS_TYPE": 0, "CLASSIFICATION_TYPE": "U", "NORAD_CAT_ID": 55974, "ELEMENT_SET_NO": 999, "REV_AT_EPOCH": 15231, "BSTAR": 0.00040681094, "MEAN_MOTION_DOT": 0.00016889, "MEAN_MOTION_DDOT": 0}, "tle": {"line1": "1 55974U 23039B   25348.35916444  .00016889  00000+0  40681-3 0  9998", "line2": "2 55974  97.5037 150.2459 0005002  51.1660 309.0032 15.41322685152311"}}, "geometry": {"type": "Point", "coordinates": [150.79598142403148, 0.3811964157944911]}}, {"type": "Feature", "properties": {"norad_id": 55975, "name": "TIANMU-1 05", "group": "weather", "lat": 29.0269128338957, "lon": 147.14147431610627, "alt_km": 439.7948115894069, "timestamp": "2025-12-14T22:38:40.403489+00:00", "meta": {"OBJECT_NAME": "TIANMU-1 05", "OBJECT_ID": "2023-039C", "EPOCH": "2025-12-14T08:29:29.197824", "MEAN_MOTION": 15.40941853, "ECCENTRICITY": 0.00043263, "INCLINATION": 97.5083, "RA_OF_ASC_NODE": 150.7329, "ARG_OF_PERICENTER": 73.3574, "MEAN_ANOMALY": 286.8147, "EPHEMERIS_TYPE": 0, "CLASSIFICATION_TYPE": "U", "NORAD_CAT_ID": 55975, "ELEMENT_SET_NO": 999, "REV_AT_EPOCH": 15229, "BSTAR": 0.0004131456, "MEAN_MOTION_DOT": 0.00016937, "MEAN_MOTION_DDOT": 0}, "tle": {"line1": "1 55975U 23039C   25348.35381016  .00016937  00000+0  41315-3 0  9999", "line2": "2 55975  97.5083 150.7329 0004326  73.3574 286.8147 15.40941853152291"}}, "geometry": {"type": "Point", "coordinates": [147.14147431610627, 29.0269128338957]}}, {"type": "Feature", "properties": {"norad_id": 55976, "name": "TIANMU-1 06", "group": "weather", "lat": -11.170404286392134, "lon": 153.29832565393235, "alt_km": 445.74985698830005, "timestamp": "2025-12-14T22:38:40.403500+00:00", "meta": {"OBJECT_NAME": "TIANMU-1 06", "OBJECT_ID": "2023-039D", "EPOCH": "2025-12-14T08:40:15.006720", "MEAN_MOTION": 15.41374762, "ECCENTRICITY": 0.00046218, "INCLINATION": 97.5095, "RA_OF_ASC_NODE": 151.207, "ARG_OF_PERICENTER": 68.4039, "MEAN_ANOMALY": 291.7699, "EPHEMERIS_TYPE": 0, "CLASSIFICATION_TYPE": "U", "NORAD_CAT_ID": 55976, "ELEMENT_SET_NO": 999, "REV_AT_EPOCH": 15231, "BSTAR": 0.00040741575, "MEAN_MOTION_DOT": 0.00016943, "MEAN_MOTION_DDOT": 0}, "tle": {"line1": "1 55976U 23039D   25348.36128480  .00016943  00000+0  40742-3 0  9995", "line2": "2 55976  97.5095 151.2070 0004621  68.4039 291.7699 15.41374762152313"}}, "geometry": {"type": "Point", "coordinates": [153.29832565393235, -11.170404286392134]}}, {"type": "Feature", "properties": {"norad_id": 56232, "name": "FENGYUN 3G", "group": "weather", "lat": -2.7935946322041594, "lon": 38.42823020741587, "alt_km": 400.79684115914097, "timestamp": "2025-12-14T22:38:40.403510+00:00", "meta": {"OBJECT_NAME": "FENGYUN 3G", "OBJECT_ID": "2023-055A", "EPOCH": "2025-12-14T04:52:50.215872", "MEAN_MOTION": 15.53758908, "ECCENTRICITY": 0.00093472, "INCLINATION": 49.993, "RA_OF_ASC_NODE": 219.9018, "ARG_OF_PERICENTER": 155.2051, "MEAN_ANOMALY": 204.9368, "EPHEMERIS_TYPE": 0, "CLASSIFICATION_TYPE": "U", "NORAD_CAT_ID": 56232, "ELEMENT_SET_NO": 999, "REV_AT_EPOCH": 15125, "BSTAR": 0.00052721428, "MEAN_MOTION_DOT": 0.00034214, "MEAN_MOTION_DDOT": 0}, "tle": {"line1": "1 56232U 23055A   25348.20335898  .00034214  00000+0  52721-3 0  9996", "line2": "2 56232  49.9930 219.9018 0009347 155.2051 204.9368 15.53758908151253"}}, "geometry": {"type": "Point", "coordinates": [38.42823020741587, -2.7935946322041594]}}, {"type": "Feature", "properties": {"norad_id": 57166, "name": "METEOR-M2 3", "group": "weather", "lat": 18.23197629503715, "lon": 39.57425291149048, "alt_km": 809.4100548354154, "timestamp": "2025-12-14T22:38:40.403527+00:00", "meta": {"OBJECT_NAME": "METEOR-M2 3", "OBJECT_ID": "2023-091A", "EPOCH": "2025-12-14T07:22:53.018112", "MEAN_MOTION": 14.24026263, "ECCENTRICITY": 0.00038183, "INCLINATION": 98.6376, "RA_OF_ASC_NODE": 41.8195, "ARG_OF_PERICENTER": 4.4896, "MEAN_ANOMALY": 355.6317, "EPHEMERIS_TYPE": 0, "CLASSIFICATION_TYPE": "U", "NORAD_CAT_ID": 57166, "ELEMENT_SET_NO": 999, "REV_AT_EPOCH": 12820, "BSTAR": 2.7417303e-05, "MEAN_MOTION_DOT": 1.9e-07, "MEAN_MOTION_DDOT": 0}, "tle": {"line1": "1 57166U 23091A   25348.30755808  .00000019  00000+0  27417-4 0  9992", "line2": "2 57166  98.6376  41.8195 0003818   4.4896 355.6317 14.24026263128208"}}, "geometry": {"type": "Point", "coordinates": [39.57425291149048, 18.23197629503715]}}, {"type": "Feature", "properties": {"norad_id": 57399, "name": "TIANMU-1 07", "group": "weather", "lat": -49.79263350354152, "lon": 47.453401763254305, "alt_km": 490.62485596574606, "timestamp": "2025-12-14T22:38:40.403551+00:00", "meta": {"OBJECT_NAME": "TIANMU-1 07", "OBJECT_ID": "2023-101A", "EPOCH": "2025-12-14T07:08:55.403808", "MEAN_MOTION": 15.2810173, "ECCENTRICITY": 0.00055495, "INCLINATION": 97.2882, "RA_OF_ASC_NODE": 38.1133, "ARG_OF_PERICENTER": 77.716, "MEAN_ANOMALY": 282.4701, "EPHEMERIS_TYPE": 0, "CLASSIFICATION_TYPE": "U", "NORAD_CAT_ID": 57399, "ELEMENT_SET_NO": 999, "REV_AT_EPOCH": 13339, "BSTAR": 0.00031647341, "MEAN_MOTION_DOT": 8.604e-05, "MEAN_MOTION_DDOT": 0}, "tle": {"line1": "1 57399U 23101A   25348.29786347  .00008604  00000+0  31647-3 0  9999", "line2": "2 57399  97.2882  38.1133 0005549  77.7160 282.4701 15.28101730133392"}}, "geometry": {"type": "Point", "coordinates": [47.453401763254305, -49.79263350354152]}}, {"type": "Feature", "properties": {"norad_id": 57400, "name": "TIANMU-1 08", "group": "weather", "lat": 47.94259243262151, "lon": -133.30363434102802, "alt_km": 474.2828721496453, "timestamp": "2025-12-14T22:38:40.403566+00:00", "meta": {"OBJECT_NAME": "TIANMU-1 08", "OBJECT_ID": "2023-101B", "EPOCH": "2025-12-14T07:55:38.820288", "MEAN_MOTION": 15.28085672, "ECCENTRICITY": 0.00074632, "INCLINATION": 97.287, "RA_OF_ASC_NODE": 37.9429, "ARG_OF_PERICENTER": 79.5538, "MEAN_ANOMALY": 280.6542, "EPHEMERIS_TYPE": 0, "CLASSIFICATION_TYPE": "U", "NORAD_CAT_ID": 57400, "ELEMENT_SET_NO": 999, "REV_AT_EPOCH": 13339, "BSTAR": 0.00029505858, "MEAN_MOTION_DOT": 8.015e-05, "MEAN_MOTION_DDOT": 0}, "tle": {"line1": "1 57400U 23101B   25348.33031042  .00008015  00000+0  29506-3 0  9999", "line2": "2 57400  97.2870  37.9429 0007463  79.5538 280.6542 15.28085672133392"}}, "geometry": {"type": "Point", "coordinates": [-133.30363434102802, 47.94259243262151]}}]}